STARLINK-4316           
1 53471U 22099G   25351.34970646  .00000303  00000+0  25182-4 0  9994
2 53471  97.6027 110.0249 0000740  88.3143 271.8168 15.05649853183650
STARLINK-4447           
1 53472U 22099H   25351.33609177  .00000726  00000+0  61056-4 0  9991
2 53472  97.6037 109.5942 0002971  75.6910 284.4644 15.01254349183628
STARLINK-4383           
1 53473U 22099J   25351.31648799  .00000099  00000+0  11073-4 0  9990
2 53473  97.6026 110.0597 0001234  92.9699 267.1669 15.05647234183658
STARLINK-4445           
1 53474U 22099K   25351.32337158  .00000306  00000+0  28379-4 0  9994
2 53474  97.6019 109.5765 0001711  83.8082 276.3337 15.01263582183623
STARLINK-4389           
1 53475U 22099L   25351.32868434  .00000123  00000+0  14089-4 0  9991
2 53475  97.6031 109.5839 0003186  82.2630 277.8956 15.01260068184327
STARLINK-4378           
1 53476U 22099M   25351.33238653  .00000158  00000+0  16881-4 0  9997
2 53476  97.6025 109.5903 0003720  75.8920 284.2718 15.01260261183622
STARLINK-4412           
1 53477U 22099N   25351.34349647  .00000730  00000+0  61366-4 0  9999
2 53477  97.6037 109.5601 0002093  86.5880 273.5584 15.01261738184327
STARLINK-4433           
1 53478U 22099P   25351.32498740  .00001788  00000+0  14369-3 0  9991
2 53478  97.6021 109.5919 0003080  77.5294 282.6275 15.01259080183626
STARLINK-4436           
1 53479U 22099Q   25351.29433561  .00006491  00000+0  45337-3 0  9993
2 53479  97.6007 110.0722 0001049  99.6654 260.4691 15.05673181183653
STARLINK-4442           
1 53480U 22099R   25351.33586296  .00000884  00000+0  65483-4 0  9999
2 53480  97.6029 110.0255 0001257  97.1732 262.9638 15.05648457183657
STARLINK-4302           
1 53481U 22099S   25351.32127207 -.00000245  00000+0 -14551-4 0  9995
2 53481  97.6020 109.5731 0001300  95.5779 264.5593 15.01262668183620
STARLINK-4360           
1 53482U 22099T   25351.31016432  .00001258  00000+0  10250-3 0  9996
2 53482  97.6028 109.5823 0002896 245.3617 114.7306 15.01256341183627
STARLINK-4426           
1 53484U 22099V   25351.33309395 -.00000042  00000+0  13119-5 0  9993
2 53484  97.6038 110.0135 0001449 100.7228 259.4162 15.05649657183658
STARLINK-4430           
1 53485U 22099W   25351.31386538 -.00000047  00000+0  91057-6 0  9999
2 53485  97.6020 109.5618 0000615 211.0131 149.1057 15.01261570183627
STARLINK-4431           
1 53486U 22099X   25351.31758103 -.00000564  00000+0 -39370-4 0  9994
2 53486  97.6023 109.5674 0000675 164.5270 195.5975 15.01257974183622
STARLINK-4432           
1 53487U 22099Y   25351.31370803 -.00006076  00000+0 -41692-3 0  9995
2 53487  97.6021 110.0168 0001613 105.9092 254.2313 15.05680480183658
