[{"OBJECT_NAME":"STARLINK-4316","OBJECT_ID":"2022-099G","EPOCH":"2025-12-17T08:23:34.638144","MEAN_MOTION":15.05649853,"ECCENTRICITY":7.409e-5,"INCLINATION":97.6027,"RA_OF_ASC_NODE":110.0249,"ARG_OF_PERICENTER":88.3143,"MEAN_ANOMALY":271.8168,"EPHEMERIS_TYPE":0,"CLASSIFICATION_TYPE":"U","NORAD_CAT_ID":53471,"ELEMENT_SET_NO":999,"REV_AT_EPOCH":18365,"BSTAR":2.5181649e-5,"MEAN_MOTION_DOT":3.03e-6,"MEAN_MOTION_DDOT":0},{"OBJECT_NAME":"STARLINK-4447","OBJECT_ID":"2022-099H","EPOCH":"2025-12-17T08:03:58.328928","MEAN_MOTION":15.01254349,"ECCENTRICITY":0.0002971,"INCLINATION":97.6037,"RA_OF_ASC_NODE":109.5942,"ARG_OF_PERICENTER":75.691,"MEAN_ANOMALY":284.4644,"EPHEMERIS_TYPE":0,"CLASSIFICATION_TYPE":"U","NORAD_CAT_ID":53472,"ELEMENT_SET_NO":999,"REV_AT_EPOCH":18362,"BSTAR":6.105629e-5,"MEAN_MOTION_DOT":7.26e-6,"MEAN_MOTION_DDOT":0},{"OBJECT_NAME":"STARLINK-4383","OBJECT_ID":"2022-099J","EPOCH":"2025-12-17T07:35:44.562336","MEAN_MOTION":15.05647234,"ECCENTRICITY":0.00012346,"INCLINATION":97.6026,"RA_OF_ASC_NODE":110.0597,"ARG_OF_PERICENTER":92.9699,"MEAN_ANOMALY":267.1669,"EPHEMERIS_TYPE":0,"CLASSIFICATION_TYPE":"U","NORAD_CAT_ID":53473,"ELEMENT_SET_NO":999,"REV_AT_EPOCH":18365,"BSTAR":1.1073377e-5,"MEAN_MOTION_DOT":9.9e-7,"MEAN_MOTION_DDOT":0},{"OBJECT_NAME":"STARLINK-4445","OBJECT_ID":"2022-099K","EPOCH":"2025-12-17T07:45:39.304512","MEAN_MOTION":15.01263582,"ECCENTRICITY":0.00017115,"INCLINATION":97.6019,"RA_OF_ASC_NODE":109.5765,"ARG_OF_PERICENTER":83.8082,"MEAN_ANOMALY":276.3337,"EPHEMERIS_TYPE":0,"CLASSIFICATION_TYPE":"U","NORAD_CAT_ID":53474,"ELEMENT_SET_NO":999,"REV_AT_EPOCH":18362,"BSTAR":2.8378762e-5,"MEAN_MOTION_DOT":3.06e-6,"MEAN_MOTION_DDOT":0},{"OBJECT_NAME":"STARLINK-4389","OBJECT_ID":"2022-099L","EPOCH":"2025-12-17T07:53:18.326976","MEAN_MOTION":15.01260068,"ECCENTRICITY":0.00031863,"INCLINATION":97.6031,"RA_OF_ASC_NODE":109.5839,"ARG_OF_PERICENTER":82.263,"MEAN_ANOMALY":277.8956,"EPHEMERIS_TYPE":0,"CLASSIFICATION_TYPE":"U","NORAD_CAT_ID":53475,"ELEMENT_SET_NO":999,"REV_AT_EPOCH":18432,"BSTAR":1.4089068e-5,"MEAN_MOTION_DOT":1.23e-6,"MEAN_MOTION_DDOT":0},{"OBJECT_NAME":"STARLINK-4378","OBJECT_ID":"2022-099M","EPOCH":"2025-12-17T07:58:38.196192","MEAN_MOTION":15.01260261,"ECCENTRICITY":0.00037204,"INCLINATION":97.6025,"RA_OF_ASC_NODE":109.5903,"ARG_OF_PERICENTER":75.892,"MEAN_ANOMALY":284.2718,"EPHEMERIS_TYPE":0,"CLASSIFICATION_TYPE":"U","NORAD_CAT_ID":53476,"ELEMENT_SET_NO":999,"REV_AT_EPOCH":18362,"BSTAR":1.6880809e-5,"MEAN_MOTION_DOT":1.58e-6,"MEAN_MOTION_DDOT":0},{"OBJECT_NAME":"STARLINK-4412","OBJECT_ID":"2022-099N","EPOCH":"2025-12-17T08:14:38.095008","MEAN_MOTION":15.01261738,"ECCENTRICITY":0.00020938,"INCLINATION":97.6037,"RA_OF_ASC_NODE":109.5601,"ARG_OF_PERICENTER":86.588,"MEAN_ANOMALY":273.5584,"EPHEMERIS_TYPE":0,"CLASSIFICATION_TYPE":"U","NORAD_CAT_ID":53477,"ELEMENT_SET_NO":999,"REV_AT_EPOCH":18432,"BSTAR":6.1365958e-5,"MEAN_MOTION_DOT":7.3e-6,"MEAN_MOTION_DDOT":0},{"OBJECT_NAME":"STARLINK-4433","OBJECT_ID":"2022-099P","EPOCH":"2025-12-17T07:47:58.911360","MEAN_MOTION":15.0125908,"ECCENTRICITY":0.00030801,"INCLINATION":97.6021,"RA_OF_ASC_NODE":109.5919,"ARG_OF_PERICENTER":77.5294,"MEAN_ANOMALY":282.6275,"EPHEMERIS_TYPE":0,"CLASSIFICATION_TYPE":"U","NORAD_CAT_ID":53478,"ELEMENT_SET_NO":999,"REV_AT_EPOCH":18362,"BSTAR":0.00014368618,"MEAN_MOTION_DOT":1.788e-5,"MEAN_MOTION_DDOT":0},{"OBJECT_NAME":"STARLINK-4436","OBJECT_ID":"2022-099Q","EPOCH":"2025-12-17T07:03:50.596704","MEAN_MOTION":15.05673181,"ECCENTRICITY":0.00010495,"INCLINATION":97.6007,"RA_OF_ASC_NODE":110.0722,"ARG_OF_PERICENTER":99.6654,"MEAN_ANOMALY":260.4691,"EPHEMERIS_TYPE":0,"CLASSIFICATION_TYPE":"U","NORAD_CAT_ID":53479,"ELEMENT_SET_NO":999,"REV_AT_EPOCH":18365,"BSTAR":0.00045336853,"MEAN_MOTION_DOT":6.491e-5,"MEAN_MOTION_DDOT":0},{"OBJECT_NAME":"STARLINK-4442","OBJECT_ID":"2022-099R","EPOCH":"2025-12-17T08:03:38.559744","MEAN_MOTION":15.05648457,"ECCENTRICITY":0.0001257,"INCLINATION":97.6029,"RA_OF_ASC_NODE":110.0255,"ARG_OF_PERICENTER":97.1732,"MEAN_ANOMALY":262.9638,"EPHEMERIS_TYPE":0,"CLASSIFICATION_TYPE":"U","NORAD_CAT_ID":53480,"ELEMENT_SET_NO":999,"REV_AT_EPOCH":18365,"BSTAR":6.5483206e-5,"MEAN_MOTION_DOT":8.84e-6,"MEAN_MOTION_DDOT":0},{"OBJECT_NAME":"STARLINK-4302","OBJECT_ID":"2022-099S","EPOCH":"2025-12-17T07:42:37.906848","MEAN_MOTION":15.01262668,"ECCENTRICITY":0.00013001,"INCLINATION":97.602,"RA_OF_ASC_NODE":109.5731,"ARG_OF_PERICENTER":95.5779,"MEAN_ANOMALY":264.5593,"EPHEMERIS_TYPE":0,"CLASSIFICATION_TYPE":"U","NORAD_CAT_ID":53481,"ELEMENT_SET_NO":999,"REV_AT_EPOCH":18362,"BSTAR":-1.4550539e-5,"MEAN_MOTION_DOT":-2.45e-6,"MEAN_MOTION_DDOT":0},{"OBJECT_NAME":"STARLINK-4360","OBJECT_ID":"2022-099T","EPOCH":"2025-12-17T07:26:38.197248","MEAN_MOTION":15.01256341,"ECCENTRICITY":0.00028968,"INCLINATION":97.6028,"RA_OF_ASC_NODE":109.5823,"ARG_OF_PERICENTER":245.3617,"MEAN_ANOMALY":114.7306,"EPHEMERIS_TYPE":0,"CLASSIFICATION_TYPE":"U","NORAD_CAT_ID":53482,"ELEMENT_SET_NO":999,"REV_AT_EPOCH":18362,"BSTAR":0.00010249653,"MEAN_MOTION_DOT":1.258e-5,"MEAN_MOTION_DDOT":0},{"OBJECT_NAME":"STARLINK-4426","OBJECT_ID":"2022-099V","EPOCH":"2025-12-17T07:59:39.317280","MEAN_MOTION":15.05649657,"ECCENTRICITY":0.00014493,"INCLINATION":97.6038,"RA_OF_ASC_NODE":110.0135,"ARG_OF_PERICENTER":100.7228,"MEAN_ANOMALY":259.4162,"EPHEMERIS_TYPE":0,"CLASSIFICATION_TYPE":"U","NORAD_CAT_ID":53484,"ELEMENT_SET_NO":999,"REV_AT_EPOCH":18365,"BSTAR":1.311882e-6,"MEAN_MOTION_DOT":-4.2e-7,"MEAN_MOTION_DDOT":0},{"OBJECT_NAME":"STARLINK-4430","OBJECT_ID":"2022-099W","EPOCH":"2025-12-17T07:31:57.968832","MEAN_MOTION":15.0126157,"ECCENTRICITY":6.152e-5,"INCLINATION":97.602,"RA_OF_ASC_NODE":109.5618,"ARG_OF_PERICENTER":211.0131,"MEAN_ANOMALY":149.1057,"EPHEMERIS_TYPE":0,"CLASSIFICATION_TYPE":"U","NORAD_CAT_ID":53485,"ELEMENT_SET_NO":999,"REV_AT_EPOCH":18362,"BSTAR":9.10566e-7,"MEAN_MOTION_DOT":-4.7e-7,"MEAN_MOTION_DDOT":0},{"OBJECT_NAME":"STARLINK-4431","OBJECT_ID":"2022-099X","EPOCH":"2025-12-17T07:37:19.000992","MEAN_MOTION":15.01257974,"ECCENTRICITY":6.759e-5,"INCLINATION":97.6023,"RA_OF_ASC_NODE":109.5674,"ARG_OF_PERICENTER":164.527,"MEAN_ANOMALY":195.5975,"EPHEMERIS_TYPE":0,"CLASSIFICATION_TYPE":"U","NORAD_CAT_ID":53486,"ELEMENT_SET_NO":999,"REV_AT_EPOCH":18362,"BSTAR":-3.9370371e-5,"MEAN_MOTION_DOT":-5.64e-6,"MEAN_MOTION_DDOT":0},{"OBJECT_NAME":"STARLINK-4432","OBJECT_ID":"2022-099Y","EPOCH":"2025-12-17T07:31:44.373792","MEAN_MOTION":15.0568048,"ECCENTRICITY":0.0001613,"INCLINATION":97.6021,"RA_OF_ASC_NODE":110.0168,"ARG_OF_PERICENTER":105.9092,"MEAN_ANOMALY":254.2313,"EPHEMERIS_TYPE":0,"CLASSIFICATION_TYPE":"U","NORAD_CAT_ID":53487,"ELEMENT_SET_NO":999,"REV_AT_EPOCH":18365,"BSTAR":-0.00041691695,"MEAN_MOTION_DOT":-6.076e-5,"MEAN_MOTION_DDOT":0}]
